NORAD_CAT_ID,OBJECT_NAME,OBJECT_TYPE,EPOCH,MEAN_MOTION,ECCENTRICITY,INCLINATION,RA_OF_ASC_NODE,ARG_OF_PERICENTER,MEAN_ANOMALY,BSTAR,MEAN_MOTION_DOT,MEAN_MOTION_DDOT,TLE_LINE0,TLE_LINE1,TLE_LINE2,SEMIMAJOR_AXIS,PERIOD,APOGEE,PERIGEE,DECAYED
50174.0,STARLINK-3292,PAYLOAD,2023-06-12 00:02:49,15.08843488,0.000129,53.2181,65.8714,87.217,272.897,0.0001368,1.89e-05,0.0,0 STARLINK-3292,1 50174U 21125U   23163.00195787  .00001890  00000-0  13680-3 0  9999,2 50174  53.2181  65.8714 0001290  87.2170 272.8970 15.08843488 85420,6917.87,95.437,540.627,538.842,0.0
50174.0,STARLINK-3292,PAYLOAD,2023-06-13 03:04:23,15.08840145,0.0001314,53.2175,60.8154,87.7678,272.3465,-2.5186e-05,-6.89e-06,0.0,0 STARLINK-3292,1 50174U 21125U   23164.12804525 -.00000689  00000-0 -25186-4 0  9992,2 50174  53.2175  60.8154 0001314  87.7678 272.3465 15.08840145 85062,6917.88,95.438,540.654,538.836,0.0
50174.0,STARLINK-3292,PAYLOAD,2023-06-13 17:22:51,15.08837025,0.0001222,53.218,58.138,95.2725,264.8407,-3.7404e-05,-8.83e-06,0.0,0 STARLINK-3292,1 50174U 21125U   23164.72420806 -.00000883  00000-0 -37404-4 0  9996,2 50174  53.2180  58.1380 0001222  95.2725 264.8407 15.08837025 85687,6917.889,95.438,540.6,538.909,0.0
50174.0,STARLINK-3292,PAYLOAD,2023-06-14 02:55:09,15.08843957,0.0001131,53.2177,56.3544,90.4594,269.6528,4.9156e-07,-2.8e-06,0.0,0 STARLINK-3292,1 50174U 21125U   23165.12164241 -.00000280  00000-0  49156-6 0  9998,2 50174  53.2177  56.3544 0001131  90.4594 269.6528 15.08843957 85740,6917.868,95.437,540.516,538.951,0.0
50174.0,STARLINK-3292,PAYLOAD,2023-06-14 17:13:38,15.08833841,0.0001042,53.2174,53.6784,85.4369,274.6742,-1.9776e-05,-6.02e-06,0.0,0 STARLINK-3292,1 50174U 21125U   23165.71781152 -.00000602  00000-0 -19776-4 0  9991,2 50174  53.2174  53.6784 0001042  85.4369 274.6742 15.08833841 85305,6917.899,95.438,540.485,539.043,0.0
50174.0,STARLINK-3292,PAYLOAD,2023-06-15 01:10:34,15.08840414,9.55e-05,53.2175,52.1907,88.4362,271.674,4.7489e-05,4.68e-06,0.0,0 STARLINK-3292,1 50174U 21125U   23166.04900520  .00000468  00000-0  47489-4 0  9990,2 50174  53.2175  52.1907 0000955  88.4362 271.6740 15.08840414 85359,6917.879,95.438,540.405,539.083,0.0
50174.0,STARLINK-3292,PAYLOAD,2023-06-15 17:04:26,15.08836208,9.6e-05,53.2174,49.2175,82.8229,277.2872,-1.054e-05,-4.55e-06,0.0,0 STARLINK-3292,1 50174U 21125U   23166.71141238 -.00000455  00000-0 -10540-4 0  9993,2 50174  53.2174  49.2175 0000960  82.8229 277.2872 15.08836208 85453,6917.892,95.438,540.421,539.093,0.0
50174.0,STARLINK-3292,PAYLOAD,2023-06-16 01:01:21,15.08840981,9.84e-05,53.2175,47.7313,82.6136,277.4968,7.1363e-05,8.48e-06,0.0,0 STARLINK-3292,1 50174U 21125U   23167.04260703  .00000848  00000-0  71363-4 0  9993,2 50174  53.2175  47.7313 0000984  82.6136 277.4968 15.08840981 85509,6917.877,95.437,540.423,539.062,0.0
50174.0,STARLINK-3292,PAYLOAD,2023-06-16 08:58:16,15.08844179,0.0001053,53.2178,46.2442,88.1758,271.9354,3.4445e-05,2.61e-06,0.0,0 STARLINK-3292,1 50174U 21125U   23167.37380542  .00000261  00000-0  34445-4 0  9992,2 50174  53.2178  46.2442 0001053  88.1758 271.9354 15.08844179 86083,6917.868,95.437,540.461,539.004,0.0
50174.0,STARLINK-3292,PAYLOAD,2023-06-16 16:55:12,15.08845602,9.08e-05,53.2172,44.7568,88.7956,271.314,7.3604e-05,8.84e-06,0.0,0 STARLINK-3292,1 50174U 21125U   23167.70500347  .00000884  00000-0  73604-4 0  9997,2 50174  53.2172  44.7568 0000908  88.7956 271.3140 15.08845602 86138,6917.863,95.437,540.356,539.1,0.0
50174.0,STARLINK-3292,PAYLOAD,2023-06-17 00:52:07,15.08855461,0.0001011,53.2181,43.2705,92.798,267.3128,0.0001571,2.214e-05,0.0,0 STARLINK-3292,1 50174U 21125U   23168.03619263  .00002214  00000-0  15710-3 0  9994,2 50174  53.2181  43.2705 0001011  92.7980 267.3128 15.08855461 85654,6917.833,95.437,540.398,538.999,0.0
50174.0,STARLINK-3292,PAYLOAD,2023-06-17 08:49:05,15.08827701,0.0001826,53.2178,41.784,79.0049,281.1148,-7.3621e-05,-1.459e-05,0.0,0 STARLINK-3292,1 50174U 21125U   23168.36742055 -.00001459  00000-0 -73621-4 0  9994,2 50174  53.2178  41.7840 0001826  79.0049 281.1148 15.08827701 85709,6917.918,95.438,541.046,538.52,0.0
50174.0,STARLINK-3292,PAYLOAD,2023-06-17 21:32:10,15.08821097,0.0001034,53.2176,39.4047,84.0789,276.0321,-0.00012231,-2.233e-05,0.0,0 STARLINK-3292,1 50174U 21125U   23168.89734899 -.00002233  00000-0 -12231-3 0  9999,2 50174  53.2176  39.4047 0001034  84.0789 276.0321 15.08821097 86314,6917.938,95.439,540.518,539.088,0.0
50174.0,STARLINK-3292,PAYLOAD,2023-06-18 00:42:57,15.08821574,0.0001044,53.2177,38.81,83.2118,276.8993,-0.0001135,-2.093e-05,0.0,0 STARLINK-3292,1 50174U 21125U   23169.02982995 -.00002093  00000-0 -11350-3 0  9992,2 50174  53.2177  38.8100 0001044  83.2118 276.8993 15.08821574 85802,6917.937,95.439,540.524,539.079,0.0
50174.0,STARLINK-3292,PAYLOAD,2023-06-18 08:39:52,15.08830405,0.0001057,53.2183,37.324,84.7003,275.411,-3.6684e-05,-8.71e-06,0.0,0 STARLINK-3292,1 50174U 21125U   23169.36102497 -.00000871  00000-0 -36684-4 0  9990,2 50174  53.2183  37.3240 0001057  84.7003 275.4110 15.08830405 85855,6917.91,95.438,540.506,539.043,0.0
50174.0,STARLINK-3292,PAYLOAD,2023-06-18 18:12:10,15.08840419,0.0001062,53.2181,35.5398,83.925,276.1863,1.9432e-05,2.1e-07,0.0,0 STARLINK-3292,1 50174U 21125U   23169.75845930  .00000021  00000-0  19432-4 0  9996,2 50174  53.2181  35.5398 0001062  83.9250 276.1863 15.08840419 85914,6917.879,95.438,540.479,539.009,0.0
50174.0,STARLINK-3292,PAYLOAD,2023-06-18 21:22:56,15.08844325,0.0001045,53.218,34.9448,84.0836,276.0276,7.0913e-05,8.41e-06,0.0,0 STARLINK-3292,1 50174U 21125U   23169.89093631  .00000841  00000-0  70913-4 0  9995,2 50174  53.2180  34.9448 0001045  84.0836 276.0276 15.08844325 86463,6917.867,95.437,540.455,539.009,0.0
50174.0,STARLINK-3292,PAYLOAD,2023-06-19 08:30:39,15.08847751,0.0001,53.2172,32.8633,81.4304,278.6801,0.00026165,3.88e-05,0.0,0 STARLINK-3292,1 50174U 21125U   23170.35461870  .00003880  00000-0  26165-3 0  9997,2 50174  53.2172  32.8633 0001000  81.4304 278.6801 15.08847751 86535,6917.857,95.437,540.413,539.03,0.0
50174.0,STARLINK-3292,PAYLOAD,2023-06-19 21:13:44,15.0885904,0.0001044,53.217,30.4844,74.2241,285.8867,0.00070428,0.00010944,0.0,0 STARLINK-3292,1 50174U 21125U   23170.88453790  .00010944  00000-0  70428-3 0  9997,2 50174  53.2170  30.4844 0001044  74.2241 285.8867 15.08859040 86614,6917.822,95.436,540.409,538.965,0.0
50174.0,STARLINK-3292,PAYLOAD,2023-06-20 00:24:29,15.08869449,0.0001059,53.2169,29.8896,73.9728,286.1381,0.00076057,0.00011847,0.0,0 STARLINK-3292,1 50174U 21125U   23171.01701384  .00011847  00000-0  76057-3 0  9995,2 50174  53.2169  29.8896 0001059  73.9728 286.1381 15.08869449 86106,6917.79,95.436,540.388,538.923,0.0
50174.0,STARLINK-3292,PAYLOAD,2023-06-20 17:53:44,15.08855426,0.0001239,53.2168,26.6181,106.6589,253.4539,0.00025909,3.84e-05,0.0,0 STARLINK-3292,1 50174U 21125U   23171.74565150  .00003840  00000-0  25909-3 0  9998,2 50174  53.2168  26.6181 0001239 106.6589 253.4539 15.08855426 86210,6917.833,95.437,540.555,538.841,0.0
50174.0,STARLINK-3292,PAYLOAD,2023-06-20 21:04:30,15.08852005,9.91e-05,53.2173,26.0228,84.9153,275.1952,0.00025783,3.819e-05,0.0,0 STARLINK-3292,1 50174U 21125U   23171.87813212  .00003819  00000-0  25783-3 0  9993,2 50174  53.2173  26.0228 0000991  84.9153 275.1952 15.08852005 86761,6917.844,95.437,540.394,539.023,0.0
50174.0,STARLINK-3292,PAYLOAD,2023-06-21 00:15:16,15.08855598,9.24e-05,53.2171,25.4285,91.2998,268.81,0.00027027,4.018e-05,0.0,0 STARLINK-3292,1 50174U 21125U   23172.01061060  .00004018  00000-0  27027-3 0  9991,2 50174  53.2171  25.4285 0000924  91.2998 268.8100 15.08855598 86785,6917.833,95.437,540.337,539.059,0.0
50174.0,STARLINK-3292,PAYLOAD,2023-06-21 17:44:31,15.08839,0.0001294,53.218,22.1548,113.5742,246.5386,8.1429e-05,1.008e-05,0.0,0 STARLINK-3292,1 50174U 21125U   23172.73925402  .00001008  00000-0  81429-4 0  9992,2 50174  53.2180  22.1548 0001294 113.5742 246.5386 15.08839000 86360,6917.883,95.438,540.644,538.853,0.0
50174.0,STARLINK-3292,PAYLOAD,2023-06-21 20:55:17,15.08844637,0.0001098,53.2174,21.5626,86.6327,273.4791,0.00014105,1.958e-05,0.0,0 STARLINK-3292,1 50174U 21125U   23172.87173215  .00001958  00000-0  14105-3 0  9994,2 50174  53.2174  21.5626 0001098  86.6327 273.4791 15.08844637 86916,6917.866,95.437,540.491,538.972,0.0
50174.0,STARLINK-3292,PAYLOAD,2023-06-22 19:10:41,15.08840968,9.98e-05,53.2167,17.4011,92.4555,267.6551,0.00011234,1.501e-05,0.0,0 STARLINK-3292,1 50174U 21125U   23173.79909673  .00001501  00000-0  11234-3 0  9995,2 50174  53.2167  17.4011 0000998  92.4555 267.6551 15.08840968 86525,6917.877,95.437,540.433,539.052,0.0
50174.0,STARLINK-3292,PAYLOAD,2023-06-23 20:36:52,15.08841403,0.000102,53.2168,12.6434,85.893,274.2179,0.00012272,1.666e-05,0.0,0 STARLINK-3292,1 50174U 21125U   23174.85893749  .00001666  00000-0  12272-3 0  9994,2 50174  53.2168  12.6434 0001020  85.8930 274.2179 15.08841403 86684,6917.876,95.437,540.447,539.035,0.0
50174.0,STARLINK-3292,PAYLOAD,2023-06-24 23:38:25,15.08850442,0.0001082,53.2171,7.5882,86.1894,273.9222,0.00030452,4.563e-05,0.0,0 STARLINK-3292,1 50174U 21125U   23175.98501529  .00004563  00000-0  30452-3 0  9990,2 50174  53.2171   7.5882 0001082  86.1894 273.9222 15.08850442 86856,6917.848,95.437,540.462,538.965,0.0
50174.0,STARLINK-3292,PAYLOAD,2023-06-25 05:59:58,15.08836437,0.0001016,53.2177,6.3983,93.5953,266.5156,6.1003e-06,-1.91e-06,0.0,0 STARLINK-3292,1 50174U 21125U   23176.24998021 -.00000191  00000-0  61003-5 0  9999,2 50174  53.2177   6.3983 0001016  93.5953 266.5156 15.08836437 86892,6917.891,95.438,540.459,539.053,0.0
50174.0,STARLINK-3292,PAYLOAD,2023-06-25 20:18:26,15.08845927,0.0001068,53.2173,3.7225,87.7843,272.3271,0.00019004,2.738e-05,0.0,0 STARLINK-3292,1 50174U 21125U   23176.84613830  .00002738  00000-0  19004-3 0  9997,2 50174  53.2173   3.7225 0001068  87.7843 272.3271 15.08845927 86985,6917.862,95.437,540.466,538.988,0.0
